QIANFAN-73              
1 63159U 25046A   25242.10001554  .00000202  00000+0  29384-3 0  9994
2 63159  88.9859 330.8215 0016655  71.5876 288.7085 13.50966846 33284
QIANFAN-74              
1 63160U 25046B   25242.15755303  .00000201  00000+0  29233-3 0  9991
2 63160  88.9859 330.7041 0002098 109.5205 250.6173 13.50972315 33358
QIANFAN-75              
1 63161U 25046C   25242.07125316  .00000203  00000+0  29472-3 0  9995
2 63161  88.9860 330.9449 0017831  74.2661 286.0455 13.50968553 33210
QIANFAN-76              
1 63162U 25046D   25242.14110034  .00000202  00000+0  29473-3 0  9995
2 63162  88.9860 330.9189 0015420  75.4117 284.8743 13.50965256 33238
QIANFAN-77              
1 63163U 25046E   25242.11287099  .00000486  00000+0  34464-3 0  9999
2 63163  88.9855 329.7875 0016112  54.6110 305.6569 13.96027716 33858
QIANFAN-78              
1 63164U 25046F   25242.10825657  .00000197  00000+0  28655-3 0  9991
2 63164  88.9859 330.7874 0016843  77.1568 283.1463 13.50968311 33300
QIANFAN-79              
1 63165U 25046G   25242.13693015  .00000205  00000+0  29815-3 0  9995
2 63165  88.9863 330.8879 0016487  75.6387 284.6593 13.50970516 33252
QIANFAN-80              
1 63166U 25046H   25242.07943920  .00000201  00000+0  29196-3 0  9990
2 63166  88.9860 330.6036 0015571  79.9554 280.3353 13.50970362 33402
